{
    "links": {
        "self": "http://www.neowsapp.com/rest/v1/neo/3600601?api_key=iIulBulltgU6a56xZRHN4H3l9WmuAYTsLGpBGhQ2"
    },
    "id": "3600601",
    "neo_reference_id": "3600601",
    "name": "(2012 ER3)",
    "designation": "2012 ER3",
    "nasa_jpl_url": "http://ssd.jpl.nasa.gov/sbdb.cgi?sstr=3600601",
    "absolute_magnitude_h": 24.5,
    "estimated_diameter": {
        "kilometers": {
            "estimated_diameter_min": 0.0334622374,
            "estimated_diameter_max": 0.0748238376
        },
        "meters": {
            "estimated_diameter_min": 33.4622374455,
            "estimated_diameter_max": 74.8238376074
        },
        "miles": {
            "estimated_diameter_min": 0.0207924639,
            "estimated_diameter_max": 0.0464933628
        },
        "feet": {
            "estimated_diameter_min": 109.7842471007,
            "estimated_diameter_max": 245.4850393757
        }
    },
    "is_potentially_hazardous_asteroid": false,
    "close_approach_data": [
        {
            "close_approach_date": "2010-08-08",
            "close_approach_date_full": "2010-Aug-08 00:16",
            "epoch_date_close_approach": 1281226560000,
            "relative_velocity": {
                "kilometers_per_second": "20.9897103544",
                "kilometers_per_hour": "75562.9572758746",
                "miles_per_hour": "46951.8830917788"
            },
            "miss_distance": {
                "astronomical": "0.3966917008",
                "lunar": "154.3130716112",
                "kilometers": "59344233.486357296",
                "miles": "36874796.7813748448"
            },
            "orbiting_body": "Earth"
        },
        {
            "close_approach_date": "2012-03-14",
            "close_approach_date_full": "2012-Mar-14 15:37",
            "epoch_date_close_approach": 1331739420000,
            "relative_velocity": {
                "kilometers_per_second": "12.6178111855",
                "kilometers_per_hour": "45424.1202678724",
                "miles_per_hour": "28224.7818408899"
            },
            "miss_distance": {
                "astronomical": "0.0574265785",
                "lunar": "22.3389390365",
                "kilometers": "8590893.824987795",
                "miles": "5338133.890289771"
            },
            "orbiting_body": "Earth"
        },
        {
            "close_approach_date": "2131-07-28",
            "close_approach_date_full": "2131-Jul-28 15:28",
            "epoch_date_close_approach": 5098692480000,
            "relative_velocity": {
                "kilometers_per_second": "13.2455491652",
                "kilometers_per_hour": "47683.97699467",
                "miles_per_hour": "29628.9689276048"
            },
            "miss_distance": {
                "astronomical": "0.1869980065",
                "lunar": "72.7422245285",
                "kilometers": "27974503.466646155",
                "miles": "17382550.414600739"
            },
            "orbiting_body": "Earth"
        }
    ],
    "orbital_data": {
        "orbit_id": "10",
        "orbit_determination_date": "2017-04-06 08:50:36",
        "first_observation_date": "2012-03-04",
        "last_observation_date": "2012-03-14",
        "data_arc_in_days": 10,
        "observations_used": 40,
        "orbit_uncertainty": "8",
        "minimum_orbit_intersection": ".0527389",
        "jupiter_tisserand_invariant": "4.398",
        "epoch_osculation": "2455993.5",
        "eccentricity": ".4109324497517969",
        "semi_major_axis": "1.513268864284273",
        "inclination": "12.74057756782197",
        "ascending_node_longitude": "164.850697806023",
        "orbital_period": "679.9431010327546",
        "perihelion_distance": ".8914175827508173",
        "perihelion_argument": "67.64341762596381",
        "aphelion_distance": "2.135120145817729",
        "perihelion_time": "2456046.086688766950",
        "mean_anomaly": "332.1576585932739",
        "mean_motion": ".5294560669167785",
        "equinox": "J2000",
        "orbit_class": {
            "orbit_class_type": "APO",
            "orbit_class_description": "Near-Earth asteroid orbits which cross the Earth’s orbit similar to that of 1862 Apollo",
            "orbit_class_range": "a (semi-major axis) > 1.0 AU; q (perihelion) < 1.017 AU"
        }
    },
    "is_sentry_object": false
}